MEV-2                   
1 46113U 20056B   24109.45661788  .00002298  00000+0  20956-2 0  9993
2 46113  29.1198 290.6803 7145948 170.5830 218.7483  2.41004640 41152
GALAXY 30 (G-30)        
1 46114U 20056C   24110.18035189  .00000034  00000+0  00000+0 0  9997
2 46114   0.0204 228.1594 0002186 171.7413 107.7963  1.00269436 13497
GAOFEN-13 01            
1 46610U 20071A   24110.11368941 -.00000365  00000+0  00000+0 0  9991
2 46610   0.4662  87.0398 0013379 272.9624   6.3516  1.00273696 12993
TIANTONG-1 2            
1 46916U 20082A   24109.98864488 -.00000363  00000+0  00000+0 0  9990
2 46916   2.4931 293.3630 0001020  99.0050 296.0744  1.00271288 12733
LUCAS (JDRS-1)          
1 47202U 20089A   24110.48291924 -.00000238  00000+0  00000+0 0  9993
2 47202   0.0187 183.7083 0003187 198.2358  90.7600  1.00273232 12496
SXM-7                   
1 47240U 20096A   24110.01840660 -.00000208  00000+0  00000+0 0  9996
2 47240   0.0410  32.9217 0001098 139.6599 316.3899  1.00267659 12422
CMS-01                  
1 47256U 20099A   24109.85954824 -.00000169  00000+0  00000+0 0  9990
2 47256   0.1072  89.0402 0005954 199.6227 311.2388  1.00272112 12283
TURKSAT 5A              
1 47306U 21001A   24109.68307463  .00000149  00000+0  00000+0 0  9999
2 47306   0.0453  69.7870 0000125 178.0739 236.2398  1.00272907 12053
TIANTONG-1 3            
1 47321U 21003A   24110.48109177 -.00000162  00000+0  00000+0 0  9996
2 47321   2.9942 311.5557 0002968  60.1118  91.1055  1.00273646 12063
TJS-6                   
1 47613U 21010A   24110.54669035  .00000041  00000+0  00000+0 0  9994
2 47613   0.2289  84.6495 0001471   6.2927 132.4361  1.00273196 11897
SBIRS GEO-5 (USA 315)   
1 48618U 21042A   24109.89493862  .00000104  00000+0  00000+0 0  9994
2 48618   6.2411 325.5993 0002068  47.3075 177.6413  1.00273143 10811
FENGYUN 4B              
1 48808U 21047A   24110.05617440 -.00000334  00000+0  00000+0 0  9996
2 48808   0.1713 285.9041 0005528 200.7650 205.9648  1.00272389 10648
SXM-8                   
1 48838U 21049A   24109.58891622 -.00000209  00000+0  00000+0 0  9994
2 48838   0.0122 243.3352 0001769  98.7386 351.8942  1.00271133 10689
TIANLIAN 1-05           
1 49011U 21063A   24109.82396559  .00000104  00000+0  00000+0 0  9993
2 49011   0.4557 281.0816 0002064  99.4250 140.3755  1.00272936 10168
STAR ONE D2             
1 49055U 21069A   24108.43176274 -.00000272  00000+0  00000+0 0  9990
2 49055   0.0186 199.6728 0001018 218.6161 233.1230  1.00267601 10005
EUTELSAT QUANTUM        
1 49056U 21069B   24109.83005719  .00000122  00000+0  00000+0 0  9994
2 49056   0.0538  66.3083 0002045 320.0389 167.5775  1.00273208 10017
CHINASAT 2E (ZX 2E)     
1 49062U 21071A   24109.91171692 -.00000296  00000+0  00000+0 0  9990
2 49062   0.0643  63.0443 0002305  61.6131 149.1204  1.00271279 10128
TJS-7                   
1 49115U 21077A   24109.61809367 -.00000129  00000+0  00000+0 0  9994
2 49115   0.1589  80.2253 0000719 296.8272 313.2077  1.00273488  9890
CHINASAT 9B             
1 49125U 21080A   24110.48509480 -.00000314  00000+0  00000+0 0  9995
2 49125   0.0522  74.5430 0001591 321.9741  87.5850  1.00272097  9727
SHIJIAN-21 (SJ-21)      
1 49330U 21094A   24110.75421926 -.00000344  00000+0  00000+0 0  9999
2 49330   9.7043  45.6756 0080128  30.8306 170.7897  1.00341348  9345
SES-17                  
1 49332U 21095A   24109.87887685 -.00000276  00000+0  00000+0 0  9995
2 49332   0.0086 194.2127 0001024 185.6081  76.9403  1.00269930  9939
SYRACUSE 4A             
1 49333U 21095B   24109.61441382  .00000130  00000+0  00000+0 0  9996
2 49333   0.0187 264.6048 0001902 113.4739  95.8221  1.00272198 10042
QZS-1R                  
1 49336U 21096A   24109.87742137 -.00000217  00000+0  00000+0 0  9997
2 49336  35.8242  91.4226 0752336 270.3642 296.5714  1.00280157  9080
CHINASAT 1D (ZX 1D)     
1 49505U 21114A   24109.91806958 -.00000340  00000+0  00000+0 0  9990
2 49505   0.0070 328.2455 0001929 211.9936 127.9623  1.00269748  8918
STPSAT-6                
1 49817U 21118A   24109.65522741 -.00000050  00000+0  00000+0 0  9994
2 49817   0.0309  99.9812 0001014 265.7845 325.6931  1.00272157  8646
LDPE-1                  
1 49818U 21118B   24109.88375012 -.00000276  00000+0  00000+0 0  9997
2 49818   2.0797  88.4366 0007748 348.9957  45.7803  0.99758363  8727
EXPRESS AMU-7           
1 50001U 21123A   24107.02868301 -.00000253  00000+0  00000+0 0  9996
2 50001   0.0213 254.9299 0000304 124.8867 340.1733  1.00270178  8608
EXPRESS AMU-3           
1 50002U 21123B   24109.13959808 -.00000328  00000+0  00000+0 0  9997
2 50002   0.0267 264.2838 0000257  53.3430  42.3629  1.00274339  8608
TIANLIAN 2-02           
1 50005U 21124A   24109.83452229 -.00000019  00000+0  00000+0 0  9990
2 50005   0.8253 274.6468 0002340  82.9655 321.2056  1.00272895  8709
TURKSAT 5B              
1 50212U 21126A   24109.68577233  .00000141  00000+0  00000+0 0  9993
2 50212   0.0709 351.9842 0005023 352.6884 151.4970  1.00272302  8389
INMARSAT 6-F1           
1 50319U 21128A   24109.56976440 -.00000177  00000+0  00000+0 0  9993
2 50319   0.0186 261.0426 0000093  15.7321 219.2458  1.00271165  8346
SHIYAN 12 01 (SY-12 01) 
1 50321U 21129A   24110.75870777 -.00000207  00000+0  00000+0 0  9990
2 50321   1.6337  91.8747 0000999  25.9476  86.8016  1.00465142  8605
SHIYAN 12 02 (SY-12 02) 
1 50322U 21129B   24110.70428084 -.00000080  00000+0  00000+0 0  9995
2 50322   1.6321  91.8772 0001956 215.2037 321.7605  1.00109722  8602
TJS-9                   
1 50574U 21135A   24109.91946193 -.00000303  00000+0  00000+0 0  9996
2 50574   0.0899  90.2623 0002047  12.1070 213.3753  1.00269519  8527
USA 324                 
1 51280U 22006A   24098.33104895 -.00000122  00000+0  00000+0 0  9996
2 51280   1.6486  89.4257 0000482 311.5584  70.5879  1.00411158  8105
USA 325                 
1 51281U 22006B   24109.86829341 -.00000287  00000+0  00000+0 0  9990
2 51281   0.1787  80.7080 0008683 338.7713 203.2769  1.00041096  8213
GOES 18                 
1 51850U 22021A   24110.50921799  .00000095  00000+0  00000+0 0  9998
2 51850   0.0219  93.2036 0000424 250.2419 270.9574  1.00272955  7898
CHINASAT 6D (ZX 6D)     
1 52255U 22038A   24109.07852216 -.00000361  00000+0  00000+0 0  9990
2 52255   0.0693 266.5742 0001187  75.4393  17.9739  1.00268252  7503
NILESAT 301             
1 52817U 22061A   24110.10552104 -.00000061  00000+0  00000+0 0  9996
2 52817   0.0531  21.8639 0005967 353.8367 222.9962  1.00271063  6823
CMS-02 (GSAT 24)        
1 52903U 22067A   24107.33138937 -.00000175  00000+0  00000+0 0  9999
2 52903   0.0225 121.7394 0006852 323.1274 322.4178  1.00271963  6664
MEASAT 3D               
1 52904U 22067B   24109.91032456 -.00000246  00000+0  00000+0 0  9994
2 52904   0.0373 326.7681 0002532  23.3265 276.6200  1.00274008  6732
SES-22                  
1 52933U 22071A   24109.65052818  .00000084  00000+0  00000+0 0  9995
2 52933   0.0152 137.0607 0001234 242.8448 286.5166  1.00273159  6624
WFOV (USA 332)          
1 52940U 22073A   24109.91589400 -.00000365  00000+0  00000+0 0  9999
2 52940   1.6728  88.9185 0002439 251.6601 315.9283  1.00269801  6457
TIANLIAN 2-03           
1 53100U 22078A   24109.16948017  .00000063  00000+0  00000+0 0  9997
2 53100   1.3818 279.0336 0002531 114.5560 244.7289  1.00273037  6639
SBIRS GEO-6 (USA 336)   
1 53355U 22092A   24109.91981002 -.00000304  00000+0  00000+0 0  9998
2 53355   4.6976 311.0692 0003924  60.5152 306.0464  1.00272373  6323
EUTELSAT KONNECT VHTS   
1 53765U 22110A   24109.74956128  .00000013  00000+0  00000+0 0  9992
2 53765   0.0562  86.9125 0003122 284.2221 108.7430  1.00273016  5885
CHINASAT 1E (ZX 1E)     
1 53813U 22112A   24109.47886851 -.00000154  00000+0  00000+0 0  9990
2 53813   0.0407 319.0753 0001913  60.7513  80.9809  1.00270296  5935
SES-20                  
1 53960U 22123A   24109.87165399 -.00000105  00000+0  00000+0 0  9992
2 53960   0.0303 122.9456 0001689 303.6852 351.5311  1.00270579  5624
SES-21                  
1 53961U 22123B   24109.77410514  .00000065  00000+0  00000+0 0  9998
2 53961   0.0078  88.0668 0001024 299.3658 327.6085  1.00270459  5639
GALAXY 33 (G-33)        
1 54026U 22128A   24109.58919830  .00000074  00000+0  00000+0 0  9990
2 54026   0.0158 222.3249 0001965 163.1050 260.8751  1.00269447  5832
GALAXY 34 (G-34)        
1 54027U 22128B   24109.59392751  .00000054  00000+0  00000+0 0  9997
2 54027   0.0121 250.5680 0001387 142.0195 259.4193  1.00270664  5993
ANGOSAT 2               
1 54033U 22131A   24109.68194333  .00000131  00000+0  00000+0 0  9990
2 54033   0.0092 179.7782 0001363 280.3416  15.6430  1.00271829  5550
EUTELSAT HOTBIRD 13F    
1 54048U 22134A   24109.68002885  .00000082  00000+0  00000+0 0  9994
2 54048   0.0613 288.9631 0002219  56.2263 119.8873  1.00271796  5531
LDPE-2                  
1 54219U 22144A   24110.45185219 -.00000285  00000+0  00000+0 0  9991
2 54219   3.6845  65.1435 0000990  16.2134 223.9107  1.00629538  3885
EUTELSAT HOTBIRD 13G    
1 54225U 22146A   24109.68002885  .00000082  00000+0  00000+0 0  9994
2 54225   0.0458 244.6217 0001854 320.5880 259.8724  1.00271617  5307
CHINASAT 19 (ZX 19)     
1 54230U 22148A   24110.53208576 -.00000081  00000+0  00000+0 0  9993
2 54230   0.0136 257.1706 0004495  12.7024 293.1426  1.00272660  5457
GALAXY 31 (G-31)        
1 54243U 22153A   24109.60009032  .00000009  00000+0  00000+0 0  9994
2 54243   0.0189 233.0562 0001324 147.0229 282.1427  1.00272020  5212
GALAXY 32 (G-32)        
1 54244U 22153B   24107.32901358 -.00000184  00000+0  00000+0 0  9999
2 54244   0.0042 237.6246 0002860 131.9278 222.8366  1.00271511  5208
EUTELSAT 10B            
1 54259U 22157A   24109.84840941  .00000064  00000+0  00000+0 0  9994
2 54259   0.0569  86.8024 0002235 225.9437 210.1146  1.00270212  5116
